IRIDIUM 112             
1 41925U 17003J   23231.35016332  .00000415  00000+0  14119-3 0  9994
2 41925  86.4028 159.9649 0002068  84.5216 275.6215 14.34216554345269
IRIDIUM 111             
1 41926U 17003K   23231.33747984  .00000176  00000+0  55770-4 0  9990
2 41926  86.4028 160.0179 0002346  90.4151 269.7313 14.34218130345281
IRIDIUM 113             
1 42803U 17039A   23230.96860535  .00000171  00000+0  54041-4 0  9995
2 42803  86.3972  33.9125 0002230  97.6707 262.4742 14.34219472323091
IRIDIUM 123             
1 42804U 17039B   23231.07984440  .00000088  00000+0  24524-4 0  9991
2 42804  86.3923  65.3891 0001904  96.7932 263.3481 14.34217981321871
IRIDIUM 120             
1 42805U 17039C   23230.75296818  .00000168  00000+0  52981-4 0  9998
2 42805  86.3959  33.9190 0002232  93.3791 266.7660 14.34218947323056
IRIDIUM 115             
1 42806U 17039D   23231.92431447  .00001803  00000+0  52989-3 0  9992
2 42806  86.4505  33.4115 0002369 100.9261 259.2207 14.43284643325372
IRIDIUM 118             
1 42807U 17039E   23232.08831737  .00000094  00000+0  26628-4 0  9990
2 42807  86.3923  64.9696 0002067  89.2018 270.9414 14.34216505322024
IRIDIUM 117             
1 42808U 17039F   23231.06081222  .00000094  00000+0  26585-4 0  9996
2 42808  86.3922  65.3666 0002139  91.2318 268.9123 14.34216889321907
